{
  "type": "FeatureCollection",
  "features": [
    {
      "type": "Feature",
      "properties": {
        "mmsi": "503001001",
        "vessel_name": "ARAFURA QUEEN",
        "vessel_type": "Cargo",
        "risk_score": 0
      },
      "geometry": {
        "type": "LineString",
        "coordinates": [
          [
            142.09896,
            -10.6397
          ],
          [
            142.15466,
            -10.64195
          ],
          [
            142.21191,
            -10.64032
          ],
          [
            142.26795,
            -10.63922
          ],
          [
            142.32299,
            -10.63953
          ],
          [
            142.37976,
            -10.63912
          ],
          [
            142.437,
            -10.64068
          ],
          [
            142.49227,
            -10.64035
          ],
          [
            142.54813,
            -10.63959
          ],
          [
            142.60285,
            -10.64051
          ],
          [
            142.65951,
            -10.63887
          ],
          [
            142.71633,
            -10.63935
          ],
          [
            142.77178,
            -10.64067
          ],
          [
            142.82773,
            -10.63913
          ],
          [
            142.88376,
            -10.63993
          ],
          [
            142.93896,
            -10.64032
          ],
          [
            142.99689,
            -10.64028
          ],
          [
            143.05102,
            -10.64168
          ],
          [
            143.10803,
            -10.63941
          ],
          [
            143.16414,
            -10.64046
          ],
          [
            143.21811,
            -10.64128
          ],
          [
            143.2759,
            -10.63986
          ],
          [
            143.33179,
            -10.63984
          ],
          [
            143.38677,
            -10.64066
          ],
          [
            143.44358,
            -10.6412
          ],
          [
            143.4995,
            -10.63952
          ],
          [
            143.55459,
            -10.6401
          ],
          [
            143.60966,
            -10.64145
          ],
          [
            143.66604,
            -10.6396
          ],
          [
            143.72364,
            -10.64036
          ],
          [
            143.77792,
            -10.64021
          ],
          [
            143.83526,
            -10.64173
          ]
        ]
      }
    },
    {
      "type": "Feature",
      "properties": {
        "mmsi": "503001002",
        "vessel_name": "MALITA SEA",
        "vessel_type": "Fishing",
        "risk_score": 84
      },
      "geometry": {
        "type": "LineString",
        "coordinates": [
          [
            141.92831,
            -10.82891
          ],
          [
            141.95033,
            -10.81651
          ],
          [
            141.93465,
            -10.82359
          ],
          [
            141.96253,
            -10.79961
          ],
          [
            141.93217,
            -10.79805
          ],
          [
            141.92935,
            -10.82585
          ],
          [
            141.92794,
            -10.82333
          ],
          [
            141.97995,
            -10.80743
          ],
          [
            141.93516,
            -10.81378
          ],
          [
            141.94377,
            -10.83219
          ],
          [
            141.96599,
            -10.82211
          ],
          [
            141.92488,
            -10.83553
          ],
          [
            141.97652,
            -10.82081
          ],
          [
            141.93223,
            -10.82749
          ],
          [
            141.98193,
            -10.83088
          ],
          [
            141.96397,
            -10.83354
          ],
          [
            141.94939,
            -10.82235
          ],
          [
            141.93162,
            -10.82682
          ],
          [
            141.97369,
            -10.81741
          ],
          [
            141.96959,
            -10.81571
          ]
        ]
      }
    },
    {
      "type": "Feature",
      "properties": {
        "mmsi": "503001003",
        "vessel_name": "NORTHERN PRIDE",
        "vessel_type": "Fishing",
        "risk_score": 95
      },
      "geometry": {
        "type": "LineString",
        "coordinates": [
          [
            141.80111,
            -11.20041
          ],
          [
            141.82765,
            -11.18661
          ],
          [
            141.85947,
            -11.17194
          ],
          [
            141.8855,
            -11.15892
          ],
          [
            141.91509,
            -11.14653
          ],
          [
            141.94575,
            -11.13363
          ],
          [
            142.5759,
            -10.54871
          ],
          [
            142.57831,
            -10.5501
          ],
          [
            142.57824,
            -10.55244
          ],
          [
            142.58183,
            -10.55067
          ],
          [
            142.58006,
            -10.55265
          ],
          [
            142.57934,
            -10.55097
          ],
          [
            142.58108,
            -10.54799
          ],
          [
            142.57969,
            -10.54733
          ]
        ]
      }
    },
    {
      "type": "Feature",
      "properties": {
        "mmsi": "503001004",
        "vessel_name": "SEA EAGLE",
        "vessel_type": "Cargo",
        "risk_score": 98
      },
      "geometry": {
        "type": "LineString",
        "coordinates": [
          [
            142.1,
            -10.5
          ],
          [
            142.25,
            -10.52
          ],
          [
            143.6,
            -11.8
          ],
          [
            143.75,
            -11.82
          ]
        ]
      }
    },
    {
      "type": "Feature",
      "properties": {
        "mmsi": "503001005",
        "vessel_name": "TIMOR CHIEF",
        "vessel_type": "Fishing",
        "risk_score": 85
      },
      "geometry": {
        "type": "LineString",
        "coordinates": [
          [
            142.22,
            -10.62
          ],
          [
            142.225,
            -10.612
          ],
          [
            142.23,
            -10.604
          ],
          [
            142.235,
            -10.596
          ],
          [
            142.24,
            -10.588
          ],
          [
            142.245,
            -10.58
          ],
          [
            142.25,
            -10.572
          ],
          [
            142.255,
            -10.564
          ],
          [
            142.26,
            -10.556
          ],
          [
            142.265,
            -10.548
          ],
          [
            142.27,
            -10.54
          ],
          [
            142.275,
            -10.532
          ]
        ]
      }
    },
    {
      "type": "Feature",
      "properties": {
        "mmsi": "503001006",
        "vessel_name": "CAPE WESSEL",
        "vessel_type": "Fishing",
        "risk_score": 78
      },
      "geometry": {
        "type": "LineString",
        "coordinates": [
          [
            142.2,
            -10.64
          ],
          [
            142.205,
            -10.631
          ],
          [
            142.21,
            -10.622
          ],
          [
            142.215,
            -10.613
          ],
          [
            142.22,
            -10.604
          ],
          [
            142.225,
            -10.595
          ],
          [
            142.23,
            -10.586
          ],
          [
            142.235,
            -10.577
          ],
          [
            142.24,
            -10.568
          ],
          [
            142.245,
            -10.559
          ],
          [
            142.25,
            -10.55
          ],
          [
            142.255,
            -10.541
          ]
        ]
      }
    },
    {
      "type": "Feature",
      "properties": {
        "mmsi": "503001007",
        "vessel_name": "SMALL VESSEL",
        "vessel_type": "Fishing",
        "risk_score": 95
      },
      "geometry": {
        "type": "LineString",
        "coordinates": [
          [
            142.45,
            -10.35
          ],
          [
            142.458,
            -10.338
          ],
          [
            142.468,
            -10.323
          ],
          [
            142.486,
            -10.296
          ],
          [
            142.502,
            -10.272
          ]
        ]
      }
    },
    {
      "type": "Feature",
      "properties": {
        "mmsi": "503001008",
        "vessel_name": "ACV TRITON",
        "vessel_type": "Law Enforcement",
        "risk_score": 0
      },
      "geometry": {
        "type": "LineString",
        "coordinates": [
          [
            142.29978,
            -10.9007
          ],
          [
            142.32645,
            -10.80449
          ],
          [
            142.35458,
            -10.7043
          ],
          [
            142.37846,
            -10.61169
          ],
          [
            142.40465,
            -10.51242
          ],
          [
            142.43064,
            -10.4172
          ],
          [
            142.45792,
            -10.32132
          ],
          [
            142.48304,
            -10.22172
          ],
          [
            142.51353,
            -10.12542
          ],
          [
            142.53865,
            -10.03033
          ],
          [
            142.56398,
            -9.93432
          ],
          [
            142.5881,
            -9.83762
          ],
          [
            142.61598,
            -9.74116
          ],
          [
            142.64216,
            -9.64328
          ],
          [
            142.66826,
            -9.54765
          ],
          [
            142.6966,
            -9.45121
          ],
          [
            142.71998,
            -9.35413
          ],
          [
            142.74745,
            -9.25766
          ],
          [
            142.77365,
            -9.16041
          ],
          [
            142.79946,
            -9.06448
          ],
          [
            142.82537,
            -8.96825
          ],
          [
            142.85159,
            -8.87412
          ],
          [
            142.87765,
            -8.77467
          ],
          [
            142.90267,
            -8.67664
          ]
        ]
      }
    },
    {
      "type": "Feature",
      "properties": {
        "mmsi": "512001001",
        "vessel_name": "PACIFIC DAWN",
        "vessel_type": "Fishing",
        "risk_score": 0
      },
      "geometry": {
        "type": "LineString",
        "coordinates": [
          [
            141.6,
            -11.5
          ],
          [
            141.618,
            -11.488
          ],
          [
            141.636,
            -11.476
          ],
          [
            141.654,
            -11.464
          ],
          [
            141.672,
            -11.452
          ],
          [
            141.69,
            -11.44
          ],
          [
            141.708,
            -11.428
          ],
          [
            141.726,
            -11.416
          ],
          [
            141.744,
            -11.404
          ],
          [
            141.762,
            -11.392
          ]
        ]
      }
    }
  ]
}